; Управляющая программа — SmartMach CAM
; Постпроцессор: Hypertherm EDGE (плазма)
; Дата: 2026-08-20 17:24
; Материал: S235, толщина 8.0 мм
; Источник: plasma_air, ток 75 A
; Керф 2.2 мм, подача 2150 мм/мин, качество: standard

G21 ; единицы — миллиметры
G90 ; абсолютные координаты
G40 ; отмена коррекции (компенсация выполнена в траектории)
G17 ; плоскость XY
; --- Отв1 ---
G0 X174.906 Y99.738
M07 ; включение плазмотрона
G04 P0.65 ; выдержка на пробивку
M50 ; включить THC — контроль высоты по напряжению дуги
G1 X178.898 Y100.000 F2150
G1 X178.650 Y103.772 F2150
G1 X177.913 Y107.479 F2150
G1 X176.698 Y111.059 F2150
G1 X175.026 Y114.449 F2150
G1 X172.926 Y117.592 F2150
G1 X170.434 Y120.434 F2150
G1 X167.592 Y122.926 F2150
G1 X164.449 Y125.026 F2150
G1 X161.059 Y126.698 F2150
G1 X157.479 Y127.913 F2150
G1 X153.772 Y128.650 F2150
G1 X150.000 Y128.898 F2150
G1 X146.228 Y128.650 F2150
G1 X142.521 Y127.913 F2150
G1 X138.941 Y126.698 F2150
G1 X135.551 Y125.026 F2150
G1 X132.408 Y122.926 F2150
G1 X129.566 Y120.434 F2150
G1 X127.074 Y117.592 F2150
G1 X124.974 Y114.449 F2150
G1 X123.302 Y111.059 F2150
G1 X122.087 Y107.479 F2150
G1 X121.350 Y103.772 F2150
G1 X121.102 Y100.000 F2150
G1 X121.350 Y96.228 F2150
G1 X122.087 Y92.521 F2150
G1 X123.302 Y88.941 F2150
G1 X124.974 Y85.551 F2150
G1 X127.074 Y82.408 F2150
G1 X129.566 Y79.566 F2150
G1 X132.408 Y77.074 F2150
G1 X135.551 Y74.974 F2150
G1 X138.941 Y73.302 F2150
G1 X142.521 Y72.087 F2150
G1 X146.228 Y71.350 F2150
G1 X150.000 Y71.102 F2150
G1 X153.772 Y71.350 F2150
G1 X157.479 Y72.087 F2150
G1 X161.059 Y73.302 F2150
G1 X164.449 Y74.974 F2150
G1 X167.592 Y77.074 F2150
G1 X170.434 Y79.566 F2150
G1 X172.926 Y82.408 F2150
G1 X175.026 Y85.551 F2150
G1 X176.698 Y88.941 F2150
G1 X177.913 Y92.521 F2150
G1 X178.650 Y96.228 F2150
G1 X178.898 Y100.000 F2150
M08 ; выключение плазмотрона

; --- Отв2 ---
G0 X43.906 Y39.738
M07 ; включение плазмотрона
G04 P0.65 ; выдержка на пробивку
M50 ; включить THC — контроль высоты по напряжению дуги
G1 X47.898 Y40.000 F2150
G1 X47.830 Y41.031 F2150
G1 X47.629 Y42.044 F2150
G1 X47.296 Y43.022 F2150
G1 X46.840 Y43.949 F2150
G1 X46.266 Y44.808 F2150
G1 X45.584 Y45.584 F2150
G1 X44.808 Y46.266 F2150
G1 X43.949 Y46.840 F2150
G1 X43.022 Y47.296 F2150
G1 X42.044 Y47.629 F2150
G1 X41.031 Y47.830 F2150
G1 X40.000 Y47.898 F2150
G1 X38.969 Y47.830 F2150
G1 X37.956 Y47.629 F2150
G1 X36.978 Y47.296 F2150
G1 X36.051 Y46.840 F2150
G1 X35.192 Y46.266 F2150
G1 X34.416 Y45.584 F2150
G1 X33.734 Y44.808 F2150
G1 X33.160 Y43.949 F2150
G1 X32.704 Y43.022 F2150
G1 X32.371 Y42.044 F2150
G1 X32.170 Y41.031 F2150
G1 X32.102 Y40.000 F2150
G1 X32.170 Y38.969 F2150
G1 X32.371 Y37.956 F2150
G1 X32.704 Y36.978 F2150
G1 X33.160 Y36.051 F2150
G1 X33.734 Y35.192 F2150
G1 X34.416 Y34.416 F2150
G1 X35.192 Y33.734 F2150
G1 X36.051 Y33.160 F2150
G1 X36.978 Y32.704 F2150
G1 X37.956 Y32.371 F2150
G1 X38.969 Y32.170 F2150
G1 X40.000 Y32.102 F2150
G1 X41.031 Y32.170 F2150
G1 X42.044 Y32.371 F2150
G1 X43.022 Y32.704 F2150
G1 X43.949 Y33.160 F2150
G1 X44.808 Y33.734 F2150
G1 X45.584 Y34.416 F2150
G1 X46.266 Y35.192 F2150
G1 X46.840 Y36.051 F2150
G1 X47.296 Y36.978 F2150
G1 X47.629 Y37.956 F2150
G1 X47.830 Y38.969 F2150
G1 X47.898 Y40.000 F2150
M08 ; выключение плазмотрона

; --- Отв3 ---
G0 X263.906 Y39.738
M07 ; включение плазмотрона
G04 P0.65 ; выдержка на пробивку
M50 ; включить THC — контроль высоты по напряжению дуги
G1 X267.898 Y40.000 F2150
G1 X267.830 Y41.031 F2150
G1 X267.629 Y42.044 F2150
G1 X267.296 Y43.022 F2150
G1 X266.840 Y43.949 F2150
G1 X266.266 Y44.808 F2150
G1 X265.584 Y45.584 F2150
G1 X264.808 Y46.266 F2150
G1 X263.949 Y46.840 F2150
G1 X263.022 Y47.296 F2150
G1 X262.044 Y47.629 F2150
G1 X261.031 Y47.830 F2150
G1 X260.000 Y47.898 F2150
G1 X258.969 Y47.830 F2150
G1 X257.956 Y47.629 F2150
G1 X256.978 Y47.296 F2150
G1 X256.051 Y46.840 F2150
G1 X255.192 Y46.266 F2150
G1 X254.416 Y45.584 F2150
G1 X253.734 Y44.808 F2150
G1 X253.160 Y43.949 F2150
G1 X252.704 Y43.022 F2150
G1 X252.371 Y42.044 F2150
G1 X252.170 Y41.031 F2150
G1 X252.102 Y40.000 F2150
G1 X252.170 Y38.969 F2150
G1 X252.371 Y37.956 F2150
G1 X252.704 Y36.978 F2150
G1 X253.160 Y36.051 F2150
G1 X253.734 Y35.192 F2150
G1 X254.416 Y34.416 F2150
G1 X255.192 Y33.734 F2150
G1 X256.051 Y33.160 F2150
G1 X256.978 Y32.704 F2150
G1 X257.956 Y32.371 F2150
G1 X258.969 Y32.170 F2150
G1 X260.000 Y32.102 F2150
G1 X261.031 Y32.170 F2150
G1 X262.044 Y32.371 F2150
G1 X263.022 Y32.704 F2150
G1 X263.949 Y33.160 F2150
G1 X264.808 Y33.734 F2150
G1 X265.584 Y34.416 F2150
G1 X266.266 Y35.192 F2150
G1 X266.840 Y36.051 F2150
G1 X267.296 Y36.978 F2150
G1 X267.629 Y37.956 F2150
G1 X267.830 Y38.969 F2150
G1 X267.898 Y40.000 F2150
M08 ; выключение плазмотрона

; --- Отв4 ---
G0 X43.906 Y159.738
M07 ; включение плазмотрона
G04 P0.65 ; выдержка на пробивку
M50 ; включить THC — контроль высоты по напряжению дуги
G1 X47.898 Y160.000 F2150
G1 X47.830 Y161.031 F2150
G1 X47.629 Y162.044 F2150
G1 X47.296 Y163.022 F2150
G1 X46.840 Y163.949 F2150
G1 X46.266 Y164.808 F2150
G1 X45.584 Y165.584 F2150
G1 X44.808 Y166.266 F2150
G1 X43.949 Y166.840 F2150
G1 X43.022 Y167.296 F2150
G1 X42.044 Y167.629 F2150
G1 X41.031 Y167.830 F2150
G1 X40.000 Y167.898 F2150
G1 X38.969 Y167.830 F2150
G1 X37.956 Y167.629 F2150
G1 X36.978 Y167.296 F2150
G1 X36.051 Y166.840 F2150
G1 X35.192 Y166.266 F2150
G1 X34.416 Y165.584 F2150
G1 X33.734 Y164.808 F2150
G1 X33.160 Y163.949 F2150
G1 X32.704 Y163.022 F2150
G1 X32.371 Y162.044 F2150
G1 X32.170 Y161.031 F2150
G1 X32.102 Y160.000 F2150
G1 X32.170 Y158.969 F2150
G1 X32.371 Y157.956 F2150
G1 X32.704 Y156.978 F2150
G1 X33.160 Y156.051 F2150
G1 X33.734 Y155.192 F2150
G1 X34.416 Y154.416 F2150
G1 X35.192 Y153.734 F2150
G1 X36.051 Y153.160 F2150
G1 X36.978 Y152.704 F2150
G1 X37.956 Y152.371 F2150
G1 X38.969 Y152.170 F2150
G1 X40.000 Y152.102 F2150
G1 X41.031 Y152.170 F2150
G1 X42.044 Y152.371 F2150
G1 X43.022 Y152.704 F2150
G1 X43.949 Y153.160 F2150
G1 X44.808 Y153.734 F2150
G1 X45.584 Y154.416 F2150
G1 X46.266 Y155.192 F2150
G1 X46.840 Y156.051 F2150
G1 X47.296 Y156.978 F2150
G1 X47.629 Y157.956 F2150
G1 X47.830 Y158.969 F2150
G1 X47.898 Y160.000 F2150
M08 ; выключение плазмотрона

; --- Отв5 ---
G0 X263.906 Y159.738
M07 ; включение плазмотрона
G04 P0.65 ; выдержка на пробивку
M50 ; включить THC — контроль высоты по напряжению дуги
G1 X267.898 Y160.000 F2150
G1 X267.830 Y161.031 F2150
G1 X267.629 Y162.044 F2150
G1 X267.296 Y163.022 F2150
G1 X266.840 Y163.949 F2150
G1 X266.266 Y164.808 F2150
G1 X265.584 Y165.584 F2150
G1 X264.808 Y166.266 F2150
G1 X263.949 Y166.840 F2150
G1 X263.022 Y167.296 F2150
G1 X262.044 Y167.629 F2150
G1 X261.031 Y167.830 F2150
G1 X260.000 Y167.898 F2150
G1 X258.969 Y167.830 F2150
G1 X257.956 Y167.629 F2150
G1 X256.978 Y167.296 F2150
G1 X256.051 Y166.840 F2150
G1 X255.192 Y166.266 F2150
G1 X254.416 Y165.584 F2150
G1 X253.734 Y164.808 F2150
G1 X253.160 Y163.949 F2150
G1 X252.704 Y163.022 F2150
G1 X252.371 Y162.044 F2150
G1 X252.170 Y161.031 F2150
G1 X252.102 Y160.000 F2150
G1 X252.170 Y158.969 F2150
G1 X252.371 Y157.956 F2150
G1 X252.704 Y156.978 F2150
G1 X253.160 Y156.051 F2150
G1 X253.734 Y155.192 F2150
G1 X254.416 Y154.416 F2150
G1 X255.192 Y153.734 F2150
G1 X256.051 Y153.160 F2150
G1 X256.978 Y152.704 F2150
G1 X257.956 Y152.371 F2150
G1 X258.969 Y152.170 F2150
G1 X260.000 Y152.102 F2150
G1 X261.031 Y152.170 F2150
G1 X262.044 Y152.371 F2150
G1 X263.022 Y152.704 F2150
G1 X263.949 Y153.160 F2150
G1 X264.808 Y153.734 F2150
G1 X265.584 Y154.416 F2150
G1 X266.266 Y155.192 F2150
G1 X266.840 Y156.051 F2150
G1 X267.296 Y156.978 F2150
G1 X267.629 Y157.956 F2150
G1 X267.830 Y158.969 F2150
G1 X267.898 Y160.000 F2150
M08 ; выключение плазмотрона

; --- Контур ---
G0 X-1.100 Y-5.500
M07 ; включение плазмотрона
G04 P0.65 ; выдержка на пробивку
M50 ; включить THC — контроль высоты по напряжению дуги
G1 X-1.100 Y-1.100 F2150
G1 X301.100 Y-1.100 F2150
G1 X301.100 Y201.100 F2150
G1 X-1.100 Y201.100 F2150
G1 X-1.100 Y-1.100 F2150
M08 ; выключение плазмотрона


M51 ; выключить THC
G0 X0 Y0
M30